CCSDS_OMM_VERS = 2.0
CREATION_DATE  = 
ORIGINATOR     = 

OBJECT_NAME    = STARLINK-35529
OBJECT_ID      = 2025-245AB
CENTER_NAME    = EARTH
REF_FRAME      = TEME
TIME_SYSTEM    = UTC
MEAN_ELEMENT_THEORY = SGP/SGP4

EPOCH          = 2025-11-24T15:34:23.236320
MEAN_MOTION    = 15.49317506
ECCENTRICITY   = .00013067
INCLINATION    = 53.1607
RA_OF_ASC_NODE = 54.6798
ARG_OF_PERICENTER = 79.1568
MEAN_ANOMALY   = 280.9588

EPHEMERIS_TYPE = 0
CLASSIFICATION_TYPE = U
NORAD_CAT_ID   = 66259
ELEMENT_SET_NO = 999
REV_AT_EPOCH   = 513
BSTAR          = .13508207E-2
MEAN_MOTION_DOT = .7543E-3
MEAN_MOTION_DDOT = 0

CCSDS_OMM_VERS = 2.0
CREATION_DATE  = 
ORIGINATOR     = 

OBJECT_NAME    = STARLINK-35420
OBJECT_ID      = 2025-245AC
CENTER_NAME    = EARTH
REF_FRAME      = TEME
TIME_SYSTEM    = UTC
MEAN_ELEMENT_THEORY = SGP/SGP4

EPOCH          = 2025-11-24T15:34:52.788576
MEAN_MOTION    = 15.49322836
ECCENTRICITY   = .00012096
INCLINATION    = 53.1605
RA_OF_ASC_NODE = 54.6818
ARG_OF_PERICENTER = 97.3957
MEAN_ANOMALY   = 262.7190

EPHEMERIS_TYPE = 0
CLASSIFICATION_TYPE = U
NORAD_CAT_ID   = 66260
ELEMENT_SET_NO = 999
REV_AT_EPOCH   = 513
BSTAR          = .95250413E-3
MEAN_MOTION_DOT = .52911E-3
MEAN_MOTION_DDOT = 0

CCSDS_OMM_VERS = 2.0
CREATION_DATE  = 
ORIGINATOR     = 

OBJECT_NAME    = STARLINK-35536
OBJECT_ID      = 2025-245AD
CENTER_NAME    = EARTH
REF_FRAME      = TEME
TIME_SYSTEM    = UTC
MEAN_ELEMENT_THEORY = SGP/SGP4

EPOCH          = 2025-11-24T15:33:53.602848
MEAN_MOTION    = 15.49318469
ECCENTRICITY   = .00013033
INCLINATION    = 53.1608
RA_OF_ASC_NODE = 54.6772
ARG_OF_PERICENTER = 80.4757
MEAN_ANOMALY   = 279.6400

EPHEMERIS_TYPE = 0
CLASSIFICATION_TYPE = U
NORAD_CAT_ID   = 66261
ELEMENT_SET_NO = 999
REV_AT_EPOCH   = 513
BSTAR          = .1156525E-2
MEAN_MOTION_DOT = .64427E-3
MEAN_MOTION_DDOT = 0

CCSDS_OMM_VERS = 2.0
CREATION_DATE  = 
ORIGINATOR     = 

OBJECT_NAME    = STARLINK-35487
OBJECT_ID      = 2025-245AE
CENTER_NAME    = EARTH
REF_FRAME      = TEME
TIME_SYSTEM    = UTC
MEAN_ELEMENT_THEORY = SGP/SGP4

EPOCH          = 2025-11-24T15:33:23.901120
MEAN_MOTION    = 15.49325454
ECCENTRICITY   = .00012846
INCLINATION    = 53.1606
RA_OF_ASC_NODE = 54.6750
ARG_OF_PERICENTER = 86.4668
MEAN_ANOMALY   = 273.6488

EPHEMERIS_TYPE = 0
CLASSIFICATION_TYPE = U
NORAD_CAT_ID   = 66262
ELEMENT_SET_NO = 999
REV_AT_EPOCH   = 508
BSTAR          = .12230559E-2
MEAN_MOTION_DOT = .68209E-3
MEAN_MOTION_DDOT = 0

CCSDS_OMM_VERS = 2.0
CREATION_DATE  = 
ORIGINATOR     = 

OBJECT_NAME    = STARLINK-35801
OBJECT_ID      = 2025-247A
CENTER_NAME    = EARTH
REF_FRAME      = TEME
TIME_SYSTEM    = UTC
MEAN_ELEMENT_THEORY = SGP/SGP4

EPOCH          = 2025-11-25T00:00:04.000320
MEAN_MOTION    = 15.39585969
ECCENTRICITY   = .00015094
INCLINATION    = 53.1606
RA_OF_ASC_NODE = 321.2342
ARG_OF_PERICENTER = 102.9192
MEAN_ANOMALY   = 329.8718

EPHEMERIS_TYPE = 0
CLASSIFICATION_TYPE = U
NORAD_CAT_ID   = 66265
ELEMENT_SET_NO = 999
REV_AT_EPOCH   = 476
BSTAR          = .23194217E-2
MEAN_MOTION_DOT = .93415E-3
MEAN_MOTION_DDOT = 0

CCSDS_OMM_VERS = 2.0
CREATION_DATE  = 
ORIGINATOR     = 

OBJECT_NAME    = STARLINK-35056
OBJECT_ID      = 2025-247B
CENTER_NAME    = EARTH
REF_FRAME      = TEME
TIME_SYSTEM    = UTC
MEAN_ELEMENT_THEORY = SGP/SGP4

EPOCH          = 2025-11-25T00:00:04.000320
MEAN_MOTION    = 15.39582403
ECCENTRICITY   = .00015901
INCLINATION    = 53.1608
RA_OF_ASC_NODE = 321.2295
ARG_OF_PERICENTER = 91.3835
MEAN_ANOMALY   = 343.2832

EPHEMERIS_TYPE = 0
CLASSIFICATION_TYPE = U
NORAD_CAT_ID   = 66266
ELEMENT_SET_NO = 999
REV_AT_EPOCH   = 503
BSTAR          = .13247888E-2
MEAN_MOTION_DOT = .52894E-3
MEAN_MOTION_DDOT = 0

CCSDS_OMM_VERS = 2.0
CREATION_DATE  = 
ORIGINATOR     = 

OBJECT_NAME    = STARLINK-35550
OBJECT_ID      = 2025-247C
CENTER_NAME    = EARTH
REF_FRAME      = TEME
TIME_SYSTEM    = UTC
MEAN_ELEMENT_THEORY = SGP/SGP4

EPOCH          = 2025-11-25T00:00:04.000320
MEAN_MOTION    = 15.46330363
ECCENTRICITY   = .00009707
INCLINATION    = 53.1592
RA_OF_ASC_NODE = 319.8455
ARG_OF_PERICENTER = 102.3794
MEAN_ANOMALY   = 289.6824

EPHEMERIS_TYPE = 0
CLASSIFICATION_TYPE = U
NORAD_CAT_ID   = 66267
ELEMENT_SET_NO = 999
REV_AT_EPOCH   = 471
BSTAR          = -.46062135E-1
MEAN_MOTION_DOT = -.2054097E-1
MEAN_MOTION_DDOT = 0

CCSDS_OMM_VERS = 2.0
CREATION_DATE  = 
ORIGINATOR     = 

OBJECT_NAME    = STARLINK-35069
OBJECT_ID      = 2025-247D
CENTER_NAME    = EARTH
REF_FRAME      = TEME
TIME_SYSTEM    = UTC
MEAN_ELEMENT_THEORY = SGP/SGP4

EPOCH          = 2025-11-25T00:00:04.000320
MEAN_MOTION    = 15.39585573
ECCENTRICITY   = .00014562
INCLINATION    = 53.1609
RA_OF_ASC_NODE = 321.1812
ARG_OF_PERICENTER = 96.4314
MEAN_ANOMALY   = 2.1168

EPHEMERIS_TYPE = 0
CLASSIFICATION_TYPE = U
NORAD_CAT_ID   = 66268
ELEMENT_SET_NO = 999
REV_AT_EPOCH   = 498
BSTAR          = .12878929E-2
MEAN_MOTION_DOT = .51405E-3
MEAN_MOTION_DDOT = 0

CCSDS_OMM_VERS = 2.0
CREATION_DATE  = 
ORIGINATOR     = 

OBJECT_NAME    = STARLINK-34910
OBJECT_ID      = 2025-247E
CENTER_NAME    = EARTH
REF_FRAME      = TEME
TIME_SYSTEM    = UTC
MEAN_ELEMENT_THEORY = SGP/SGP4

EPOCH          = 2025-11-25T00:00:04.000320
MEAN_MOTION    = 15.46331187
ECCENTRICITY   = .00008807
INCLINATION    = 53.1595
RA_OF_ASC_NODE = 319.8496
ARG_OF_PERICENTER = 95.7623
MEAN_ANOMALY   = 294.4003

EPHEMERIS_TYPE = 0
CLASSIFICATION_TYPE = U
NORAD_CAT_ID   = 66269
ELEMENT_SET_NO = 999
REV_AT_EPOCH   = 503
BSTAR          = -.45833704E-1
MEAN_MOTION_DOT = -.2045033E-1
MEAN_MOTION_DDOT = 0

CCSDS_OMM_VERS = 2.0
CREATION_DATE  = 
ORIGINATOR     = 

OBJECT_NAME    = STARLINK-35757
OBJECT_ID      = 2025-247F
CENTER_NAME    = EARTH
REF_FRAME      = TEME
TIME_SYSTEM    = UTC
MEAN_ELEMENT_THEORY = SGP/SGP4

EPOCH          = 2025-11-25T00:00:04.000320
MEAN_MOTION    = 15.39584362
ECCENTRICITY   = .00016856
INCLINATION    = 53.1610
RA_OF_ASC_NODE = 321.1776
ARG_OF_PERICENTER = 81.0069
MEAN_ANOMALY   = 19.3995

EPHEMERIS_TYPE = 0
CLASSIFICATION_TYPE = U
NORAD_CAT_ID   = 66270
ELEMENT_SET_NO = 999
REV_AT_EPOCH   = 508
BSTAR          = .22023955E-2
MEAN_MOTION_DOT = .88621E-3
MEAN_MOTION_DDOT = 0

CCSDS_OMM_VERS = 2.0
CREATION_DATE  = 
ORIGINATOR     = 

OBJECT_NAME    = STARLINK-35745
OBJECT_ID      = 2025-247G
CENTER_NAME    = EARTH
REF_FRAME      = TEME
TIME_SYSTEM    = UTC
MEAN_ELEMENT_THEORY = SGP/SGP4

EPOCH          = 2025-11-25T00:00:04.000320
MEAN_MOTION    = 15.39579870
ECCENTRICITY   = .00012401
INCLINATION    = 53.1609
RA_OF_ASC_NODE = 321.1302
ARG_OF_PERICENTER = 98.0098
MEAN_ANOMALY   = 26.2956

EPHEMERIS_TYPE = 0
CLASSIFICATION_TYPE = U
NORAD_CAT_ID   = 66271
ELEMENT_SET_NO = 999
REV_AT_EPOCH   = 508
BSTAR          = .12970229E-2
MEAN_MOTION_DOT = .51764E-3
MEAN_MOTION_DDOT = 0

CCSDS_OMM_VERS = 2.0
CREATION_DATE  = 
ORIGINATOR     = 

OBJECT_NAME    = STARLINK-35741
OBJECT_ID      = 2025-247H
CENTER_NAME    = EARTH
REF_FRAME      = TEME
TIME_SYSTEM    = UTC
MEAN_ELEMENT_THEORY = SGP/SGP4

EPOCH          = 2025-11-25T00:00:04.000320
MEAN_MOTION    = 15.39582010
ECCENTRICITY   = .0001615
INCLINATION    = 53.1609
RA_OF_ASC_NODE = 321.1263
ARG_OF_PERICENTER = 91.9283
MEAN_ANOMALY   = 34.2456

EPHEMERIS_TYPE = 0
CLASSIFICATION_TYPE = U
NORAD_CAT_ID   = 66272
ELEMENT_SET_NO = 999
REV_AT_EPOCH   = 508
BSTAR          = .12720337E-2
MEAN_MOTION_DOT = .50757E-3
MEAN_MOTION_DDOT = 0

