STARLINK-35529          
1 66259U 25245AB  25328.64888005  .00075430  00000+0  13508-2 0  9992
2 66259  53.1607  54.6798 0001306  79.1568 280.9588 15.49317506  5137
STARLINK-35420          
1 66260U 25245AC  25328.64922209  .00052911  00000+0  95250-3 0  9993
2 66260  53.1605  54.6818 0001209  97.3957 262.7190 15.49322836  5135
STARLINK-35536          
1 66261U 25245AD  25328.64853707  .00064427  00000+0  11565-2 0  9991
2 66261  53.1608  54.6772 0001303  80.4757 279.6400 15.49318469  5132
STARLINK-35487          
1 66262U 25245AE  25328.64819330  .00068209  00000+0  12231-2 0  9999
2 66262  53.1606  54.6750 0001284  86.4668 273.6488 15.49325454  5088
STARLINK-35801          
1 66265U 25247A   25329.00004630  .00093415  00000+0  23194-2 0  9991
2 66265  53.1606 321.2342 0001509 102.9192 329.8718 15.39585969  4769
STARLINK-35056          
1 66266U 25247B   25329.00004630  .00052894  00000+0  13248-2 0  9997
2 66266  53.1608 321.2295 0001590  91.3835 343.2832 15.39582403  5032
STARLINK-35550          
1 66267U 25247C   25329.00004630 -.02054097  00000+0 -46062-1 0  9998
2 66267  53.1592 319.8455 0000970 102.3794 289.6824 15.46330363  4716
STARLINK-35069          
1 66268U 25247D   25329.00004630  .00051405  00000+0  12879-2 0  9995
2 66268  53.1609 321.1812 0001456  96.4314   2.1168 15.39585573  4985
STARLINK-34910          
1 66269U 25247E   25329.00004630 -.02045033  00000+0 -45834-1 0  9996
2 66269  53.1595 319.8496 0000880  95.7623 294.4003 15.46331187  5036
STARLINK-35757          
1 66270U 25247F   25329.00004630  .00088621  00000+0  22024-2 0  9991
2 66270  53.1610 321.1776 0001685  81.0069  19.3995 15.39584362  5085
STARLINK-35745          
1 66271U 25247G   25329.00004630  .00051764  00000+0  12970-2 0  9999
2 66271  53.1609 321.1302 0001240  98.0098  26.2956 15.39579870  5088
STARLINK-35741          
1 66272U 25247H   25329.00004630  .00050757  00000+0  12720-2 0  9994
2 66272  53.1609 321.1263 0001615  91.9283  34.2456 15.39582010  5083
